start=new Date('2023-03-13T00:00:00.000Z').valueOf();
sats=[{"REV_AT_EPOCH":"11277","PERIOD":"95.591","MEAN_MOTION":"15.06415892","CENTER_NAME":"EARTH","OBJECT_TYPE":"PAYLOAD","TLE_LINE1":"1 47768U 21017AY  23071.54018859  .00014060  00000-0  96046-3 0  9995","BSTAR":"0.00096046000000","MEAN_ANOMALY":"277.4001","ECCENTRICITY":"0.00019420","TLE_LINE2":"2 47768  53.0542  94.3472 0001942  82.7208 277.4001 15.06415892112775","DECAY_DATE":null,"SEMIMAJOR_AXIS":"6925.300","REF_FRAME":"TEME","EPOCH":"2023-03-12T12:57:52.294176","RA_OF_ASC_NODE":"94.3472","MEAN_MOTION_DDOT":"0.0000000000000","MEAN_ELEMENT_THEORY":"SGP4","MEAN_MOTION_DOT":"0.00014060","EPHEMERIS_TYPE":"0","ELEMENT_SET_NO":"999","GP_ID":"227962071","LAUNCH_DATE":"2021-03-04","INCLINATION":"53.0542","OBJECT_NAME":"STARLINK-2189","PERIAPSIS":"545.820","RCS_SIZE":"LARGE","SITE":"AFETR","CLASSIFICATION_TYPE":"U","ARG_OF_PERICENTER":"82.7208","APOAPSIS":"548.510","TIME_SYSTEM":"UTC","OBJECT_ID":"2021-017AY","FILE":"3858743","COUNTRY_CODE":"US","NORAD_CAT_ID":"47768"},{"MEAN_MOTION_DDOT":"0.0000000000000","MEAN_ELEMENT_THEORY":"SGP4","RA_OF_ASC_NODE":"57.1277","REF_FRAME":"TEME","EPOCH":"2023-03-12T22:43:39.021888","EPHEMERIS_TYPE":"0","MEAN_MOTION_DOT":"0.00005185","ELEMENT_SET_NO":"999","CENTER_NAME":"EARTH","OBJECT_TYPE":"PAYLOAD","TLE_LINE1":"1 47769U 21017AZ  23071.94697942  .00005185  00000-0  36671-3 0  9992","BSTAR":"0.00036671000000","REV_AT_EPOCH":"11335","MEAN_MOTION":"15.06400288","PERIOD":"95.592","TLE_LINE2":"2 47769  53.0541  57.1277 0001458  83.2809 276.8346 15.06400288113353","DECAY_DATE":null,"SEMIMAJOR_AXIS":"6925.348","MEAN_ANOMALY":"276.8346","ECCENTRICITY":"0.00014580","FILE":"3858743","COUNTRY_CODE":"US","OBJECT_ID":"2021-017AZ","NORAD_CAT_ID":"47769","PERIAPSIS":"546.203","RCS_SIZE":"LARGE","SITE":"AFETR","CLASSIFICATION_TYPE":"U","GP_ID":"227961319","LAUNCH_DATE":"2021-03-04","INCLINATION":"53.0541","OBJECT_NAME":"STARLINK-2192","APOAPSIS":"548.222","TIME_SYSTEM":"UTC","ARG_OF_PERICENTER":"83.2809"},{"ECCENTRICITY":"0.00018520","MEAN_ANOMALY":"244.4162","TLE_LINE2":"2 47770  53.0557  72.0946 0001852 115.7019 244.4162 15.06395947113120","SEMIMAJOR_AXIS":"6925.361","DECAY_DATE":null,"REV_AT_EPOCH":"11312","PERIOD":"95.592","MEAN_MOTION":"15.06395947","OBJECT_TYPE":"PAYLOAD","CENTER_NAME":"EARTH","BSTAR":"0.00026488000000","TLE_LINE1":"1 47770U 21017BA  23071.95481012  .00003666  00000-0  26488-3 0  9991","EPHEMERIS_TYPE":"0","MEAN_MOTION_DOT":"0.00003666","ELEMENT_SET_NO":"999","EPOCH":"2023-03-12T22:54:55.594368","REF_FRAME":"TEME","RA_OF_ASC_NODE":"72.0946","MEAN_ELEMENT_THEORY":"SGP4","MEAN_MOTION_DDOT":"0.0000000000000","ARG_OF_PERICENTER":"115.7019","APOAPSIS":"548.509","TIME_SYSTEM":"UTC","GP_ID":"227961569","INCLINATION":"53.0557","OBJECT_NAME":"STARLINK-2193","LAUNCH_DATE":"2021-03-04","PERIAPSIS":"545.943","CLASSIFICATION_TYPE":"U","SITE":"AFETR","RCS_SIZE":"LARGE","NORAD_CAT_ID":"47770","OBJECT_ID":"2021-017BA","COUNTRY_CODE":"US","FILE":"3858743"},{"MEAN_MOTION_DDOT":"0.0000000000000","MEAN_ELEMENT_THEORY":"SGP4","EPOCH":"2023-03-12T07:15:27.544896","REF_FRAME":"TEME","RA_OF_ASC_NODE":"75.0215","ELEMENT_SET_NO":"999","MEAN_MOTION_DOT":"0.00025209","EPHEMERIS_TYPE":"0","BSTAR":"0.00170500000000","TLE_LINE1":"1 47771U 21017BB  23071.30240214  .00025209  00000-0  17050-2 0  9999","OBJECT_TYPE":"PAYLOAD","CENTER_NAME":"EARTH","MEAN_MOTION":"15.06404659","PERIOD":"95.592","REV_AT_EPOCH":"11303","SEMIMAJOR_AXIS":"6925.334","DECAY_DATE":null,"TLE_LINE2":"2 47771  53.0543  75.0215 0001548  95.6885 264.4280 15.06404659113031","ECCENTRICITY":"0.00015480","MEAN_ANOMALY":"264.4280","COUNTRY_CODE":"US","FILE":"3858743","OBJECT_ID":"2021-017BB","NORAD_CAT_ID":"47771","SITE":"AFETR","CLASSIFICATION_TYPE":"U","RCS_SIZE":"LARGE","PERIAPSIS":"546.127","INCLINATION":"53.0543","OBJECT_NAME":"STARLINK-2194","LAUNCH_DATE":"2021-03-04","GP_ID":"227961821","TIME_SYSTEM":"UTC","APOAPSIS":"548.271","ARG_OF_PERICENTER":"95.6885"},{"ELEMENT_SET_NO":"999","MEAN_MOTION_DOT":"0.00006380","EPHEMERIS_TYPE":"0","MEAN_MOTION_DDOT":"0.0000000000000","MEAN_ELEMENT_THEORY":"SGP4","EPOCH":"2023-03-12T13:22:20.556768","REF_FRAME":"TEME","RA_OF_ASC_NODE":"88.8980","SEMIMAJOR_AXIS":"6925.364","DECAY_DATE":null,"TLE_LINE2":"2 47772  53.0540  88.8980 0003118  23.8674 336.2459 15.06394813112837","ECCENTRICITY":"0.00031180","MEAN_ANOMALY":"336.2459","BSTAR":"0.00044689000000","TLE_LINE1":"1 47772U 21017BC  23071.55718237  .00006380  00000-0  44689-3 0  9990","OBJECT_TYPE":"PAYLOAD","CENTER_NAME":"EARTH","MEAN_MOTION":"15.06394813","PERIOD":"95.592","REV_AT_EPOCH":"11283","NORAD_CAT_ID":"47772","COUNTRY_CODE":"US","FILE":"3858743","OBJECT_ID":"2021-017BC","TIME_SYSTEM":"UTC","APOAPSIS":"549.389","ARG_OF_PERICENTER":"23.8674","SITE":"AFETR","CLASSIFICATION_TYPE":"U","RCS_SIZE":"LARGE","PERIAPSIS":"545.070","OBJECT_NAME":"STARLINK-2195","INCLINATION":"53.0540","LAUNCH_DATE":"2021-03-04","GP_ID":"227962571"},{"NORAD_CAT_ID":"47773","OBJECT_ID":"2021-017BD","COUNTRY_CODE":"US","FILE":"3858534","ARG_OF_PERICENTER":"114.8333","APOAPSIS":"548.445","TIME_SYSTEM":"UTC","GP_ID":"227931097","INCLINATION":"53.0526","OBJECT_NAME":"STARLINK-2196","LAUNCH_DATE":"2021-03-04","PERIAPSIS":"545.992","CLASSIFICATION_TYPE":"U","SITE":"AFETR","RCS_SIZE":"LARGE","MEAN_MOTION_DOT":"0.00010226","EPHEMERIS_TYPE":"0","ELEMENT_SET_NO":"999","REF_FRAME":"TEME","RA_OF_ASC_NODE":"89.4900","EPOCH":"2023-03-12T10:05:58.103232","MEAN_MOTION_DDOT":"0.0000000000000","MEAN_ELEMENT_THEORY":"SGP4","ECCENTRICITY":"0.00017710","MEAN_ANOMALY":"245.2840","TLE_LINE2":"2 47773  53.0526  89.4900 0001771 114.8333 245.2840 15.06398430112806","SEMIMAJOR_AXIS":"6925.353","DECAY_DATE":null,"REV_AT_EPOCH":"11280","MEAN_MOTION":"15.06398430","PERIOD":"95.592","OBJECT_TYPE":"PAYLOAD","CENTER_NAME":"EARTH","BSTAR":"0.00070442000000","TLE_LINE1":"1 47773U 21017BD  23071.42081138  .00010226  00000-0  70442-3 0  9990"},{"TLE_LINE2":"2 47774  53.0532  89.2112 0001517  94.6434 265.4728 15.06409683112185","SEMIMAJOR_AXIS":"6925.319","DECAY_DATE":null,"ECCENTRICITY":"0.00015170","MEAN_ANOMALY":"265.4728","OBJECT_TYPE":"PAYLOAD","CENTER_NAME":"EARTH","BSTAR":"0.00127440000000","TLE_LINE1":"1 47774U 21017BE  23071.48347174  .00018757  00000-0  12744-2 0  9999","REV_AT_EPOCH":"11218","PERIOD":"95.592","MEAN_MOTION":"15.06409683","EPHEMERIS_TYPE":"0","MEAN_MOTION_DOT":"0.00018757","ELEMENT_SET_NO":"999","MEAN_ELEMENT_THEORY":"SGP4","MEAN_MOTION_DDOT":"0.0000000000000","EPOCH":"2023-03-12T11:36:11.958336","REF_FRAME":"TEME","RA_OF_ASC_NODE":"89.2112","APOAPSIS":"548.234","TIME_SYSTEM":"UTC","ARG_OF_PERICENTER":"94.6434","PERIAPSIS":"546.133","SITE":"AFETR","CLASSIFICATION_TYPE":"U","RCS_SIZE":"LARGE","GP_ID":"227936484","INCLINATION":"53.0532","OBJECT_NAME":"STARLINK-2197","LAUNCH_DATE":"2021-03-04","NORAD_CAT_ID":"47774","COUNTRY_CODE":"US","FILE":"3858581","OBJECT_ID":"2021-017BE"},{"PERIAPSIS":"546.364","SITE":"AFETR","CLASSIFICATION_TYPE":"U","RCS_SIZE":"LARGE","GP_ID":"227962321","INCLINATION":"53.0533","OBJECT_NAME":"STARLINK-2198","LAUNCH_DATE":"2021-03-04","APOAPSIS":"548.051","TIME_SYSTEM":"UTC","ARG_OF_PERICENTER":"105.0658","COUNTRY_CODE":"US","FILE":"3858743","OBJECT_ID":"2021-017BF","NORAD_CAT_ID":"47775","OBJECT_TYPE":"PAYLOAD","CENTER_NAME":"EARTH","BSTAR":"0.00071056000000","TLE_LINE1":"1 47775U 21017BF  23071.56087557  .00010319  00000-0  71056-3 0  9993","REV_AT_EPOCH":"11288","PERIOD":"95.592","MEAN_MOTION":"15.06402020","TLE_LINE2":"2 47775  53.0533  88.8629 0001218 105.0658 255.0466 15.06402020112887","SEMIMAJOR_AXIS":"6925.342","DECAY_DATE":null,"ECCENTRICITY":"0.00012180","MEAN_ANOMALY":"255.0466","MEAN_MOTION_DDOT":"0.0000000000000","MEAN_ELEMENT_THEORY":"SGP4","RA_OF_ASC_NODE":"88.8629","REF_FRAME":"TEME","EPOCH":"2023-03-12T13:27:39.649248","EPHEMERIS_TYPE":"0","MEAN_MOTION_DOT":"0.00010319","ELEMENT_SET_NO":"999"},{"ARG_OF_PERICENTER":"111.2683","APOAPSIS":"547.999","TIME_SYSTEM":"UTC","GP_ID":"227937738","LAUNCH_DATE":"2021-03-04","INCLINATION":"53.0526","OBJECT_NAME":"STARLINK-2209","PERIAPSIS":"546.552","RCS_SIZE":"LARGE","SITE":"AFETR","CLASSIFICATION_TYPE":"U","NORAD_CAT_ID":"47776","OBJECT_ID":"2021-017BG","FILE":"3858633","COUNTRY_CODE":"US","MEAN_ANOMALY":"248.8418","ECCENTRICITY":"0.00010450","TLE_LINE2":"2 47776  53.0526  80.2298 0001045 111.2683 248.8418 15.06379830112297","DECAY_DATE":null,"SEMIMAJOR_AXIS":"6925.410","REV_AT_EPOCH":"11229","PERIOD":"95.593","MEAN_MOTION":"15.06379830","CENTER_NAME":"EARTH","OBJECT_TYPE":"PAYLOAD","TLE_LINE1":"1 47776U 21017BG  23071.25586782  .00019253  00000-0  13086-2 0  9998","BSTAR":"0.00130860000000","EPHEMERIS_TYPE":"0","MEAN_MOTION_DOT":"0.00019253","ELEMENT_SET_NO":"999","RA_OF_ASC_NODE":"80.2298","REF_FRAME":"TEME","EPOCH":"2023-03-12T06:08:26.979648","MEAN_ELEMENT_THEORY":"SGP4","MEAN_MOTION_DDOT":"0.0000000000000"},{"REV_AT_EPOCH":"11233","MEAN_MOTION":"15.06424051","PERIOD":"95.591","OBJECT_TYPE":"PAYLOAD","CENTER_NAME":"EARTH","BSTAR":"0.00145940000000","TLE_LINE1":"1 47777U 21017BH  23071.52493989  .00021537  00000-0  14594-2 0  9998","ECCENTRICITY":"0.00019050","MEAN_ANOMALY":"260.5920","TLE_LINE2":"2 47777  53.0530  79.0234 0001905  99.5284 260.5920 15.06424051112339","SEMIMAJOR_AXIS":"6925.275","DECAY_DATE":null,"REF_FRAME":"TEME","EPOCH":"2023-03-12T12:35:54.806496","RA_OF_ASC_NODE":"79.0234","MEAN_ELEMENT_THEORY":"SGP4","MEAN_MOTION_DDOT":"0.0000000000000","EPHEMERIS_TYPE":"0","MEAN_MOTION_DOT":"0.00021537","ELEMENT_SET_NO":"999","GP_ID":"227905387","OBJECT_NAME":"STARLINK-2210","INCLINATION":"53.0530","LAUNCH_DATE":"2021-03-04","PERIAPSIS":"545.821","SITE":"AFETR","CLASSIFICATION_TYPE":"U","RCS_SIZE":"LARGE","ARG_OF_PERICENTER":"99.5284","APOAPSIS":"548.459","TIME_SYSTEM":"UTC","OBJECT_ID":"2021-017BH","COUNTRY_CODE":"US","FILE":"3858393","NORAD_CAT_ID":"47777"}];
